[
    {
        "Altitude(m)": 568384.9897297778,
        "Argument of Periapsis(deg)": 0.006622991110713501,
        "Eccentricity": 0.0,
        "Inclination(deg)": 53.0,
        "Latitude(deg)": -44.501373250738574,
        "Longitude(deg)": -143.3386668430112,
        "Mean Anomaly(deg)": 241.0006928675776,
        "RAAN(deg)": 89.99014336852801,
        "Satellite Name": "Starlink Shell 1 410",
        "Satellite Number": 410,
        "Semi-Major Axis(m)": 6931778.249405717,
        "Time(s)": 190
    },
    {
        "Altitude(m)": 568522.943667393,
        "Argument of Periapsis(deg)": 0.0069715695902247375,
        "Eccentricity": 0.0,
        "Inclination(deg)": 53.0,
        "Latitude(deg)": -44.837210259282706,
        "Longitude(deg)": -142.64004808539073,
        "Mean Anomaly(deg)": 241.6275240711344,
        "RAAN(deg)": 89.98962459845053,
        "Satellite Name": "Starlink Shell 1 410",
        "Satellite Number": 410,
        "Semi-Major Axis(m)": 6931778.249405717,
        "Time(s)": 200
    },
    {
        "Altitude(m)": 568658.7353985109,
        "Argument of Periapsis(deg)": 0.007320148069735974,
        "Eccentricity": 0.0,
        "Inclination(deg)": 53.0,
        "Latitude(deg)": -45.16817353560327,
        "Longitude(deg)": -141.9328679621179,
        "Mean Anomaly(deg)": 242.25435527469108,
        "RAAN(deg)": 89.98910582837307,
        "Satellite Name": "Starlink Shell 1 410",
        "Satellite Number": 410,
        "Semi-Major Axis(m)": 6931778.249405717,
        "Time(s)": 210
    },
    {
        "Altitude(m)": 568792.3113954946,
        "Argument of Periapsis(deg)": 0.007668726549247212,
        "Eccentricity": 0.0,
        "Inclination(deg)": 53.0,
        "Latitude(deg)": -45.4941514611211,
        "Longitude(deg)": -141.21705603914629,
        "Mean Anomaly(deg)": 242.88118647824777,
        "RAAN(deg)": 89.9885870582956,
        "Satellite Name": "Starlink Shell 1 410",
        "Satellite Number": 410,
        "Semi-Major Axis(m)": 6931778.249405717,
        "Time(s)": 220
    },
    {
        "Altitude(m)": 568923.6189687483,
        "Argument of Periapsis(deg)": 0.00801730502875845,
        "Eccentricity": 0.0,
        "Inclination(deg)": 53.0,
        "Latitude(deg)": -45.81503089909483,
        "Longitude(deg)": -140.49254816417573,
        "Mean Anomaly(deg)": 243.5080176818044,
        "RAAN(deg)": 89.98806828821812,
        "Satellite Name": "Starlink Shell 1 410",
        "Satellite Number": 410,
        "Semi-Major Axis(m)": 6931778.249405717,
        "Time(s)": 230
    },
    {
        "Altitude(m)": 569052.6062898856,
        "Argument of Periapsis(deg)": 0.008365883508269684,
        "Eccentricity": 0.0,
        "Inclination(deg)": 53.0,
        "Latitude(deg)": -46.13069726500127,
        "Longitude(deg)": -139.75928645398034,
        "Mean Anomaly(deg)": 244.1348488853612,
        "RAAN(deg)": 89.98754951814065,
        "Satellite Name": "Starlink Shell 1 410",
        "Satellite Number": 410,
        "Semi-Major Axis(m)": 6931778.249405717,
        "Time(s)": 240
    },
    {
        "Altitude(m)": 569179.2224144557,
        "Argument of Periapsis(deg)": 0.008714461987780921,
        "Eccentricity": 0.0,
        "Inclination(deg)": 53.0,
        "Latitude(deg)": -46.44103460563841,
        "Longitude(deg)": -139.01722080840946,
        "Mean Anomaly(deg)": 244.7616800889179,
        "RAAN(deg)": 89.98703074806318,
        "Satellite Name": "Starlink Shell 1 410",
        "Satellite Number": 410,
        "Semi-Major Axis(m)": 6931778.249405717,
        "Time(s)": 250
    },
    {
        "Altitude(m)": 569303.4173043098,
        "Argument of Periapsis(deg)": 0.009063040467292158,
        "Eccentricity": 0.0,
        "Inclination(deg)": 53.0,
        "Latitude(deg)": -46.74592568734231,
        "Longitude(deg)": -138.26630892386305,
        "Mean Anomaly(deg)": 245.38851129247462,
        "RAAN(deg)": 89.9865119779857,
        "Satellite Name": "Starlink Shell 1 410",
        "Satellite Number": 410,
        "Semi-Major Axis(m)": 6931778.249405717,
        "Time(s)": 260
    },
    {
        "Altitude(m)": 569425.1418495269,
        "Argument of Periapsis(deg)": 0.009411618946803396,
        "Eccentricity": 0.0,
        "Inclination(deg)": 53.0,
        "Latitude(deg)": -47.0452520936813,
        "Longitude(deg)": -137.5065163174265,
        "Mean Anomaly(deg)": 246.0153424960313,
        "RAAN(deg)": 89.98599320790824,
        "Satellite Name": "Starlink Shell 1 410",
        "Satellite Number": 410,
        "Semi-Major Axis(m)": 6931778.249405717,
        "Time(s)": 270
    },
    {
        "Altitude(m)": 569544.3478899323,
        "Argument of Periapsis(deg)": 0.009760197426314633,
        "Eccentricity": 0.0,
        "Inclination(deg)": 53.0,
        "Latitude(deg)": -47.33889433296565,
        "Longitude(deg)": -136.73781787259233,
        "Mean Anomaly(deg)": 246.64217369958806,
        "RAAN(deg)": 89.98547443783076,
        "Satellite Name": "Starlink Shell 1 410",
        "Satellite Number": 410,
        "Semi-Major Axis(m)": 6931778.249405717,
        "Time(s)": 280
    },
    {
        "Altitude(m)": 569660.9882361899,
        "Argument of Periapsis(deg)": 0.01010877590582587,
        "Eccentricity": 0.0,
        "Inclination(deg)": 53.0,
        "Latitude(deg)": -47.62673195589091,
        "Longitude(deg)": -135.96019787859225,
        "Mean Anomaly(deg)": 247.26900490314478,
        "RAAN(deg)": 89.98495566775328,
        "Satellite Name": "Starlink Shell 1 410",
        "Satellite Number": 410,
        "Semi-Major Axis(m)": 6931778.249405717,
        "Time(s)": 290
    },
    {
        "Altitude(m)": 569775.0166904447,
        "Argument of Periapsis(deg)": 0.010457354385337106,
        "Eccentricity": 0.0,
        "Inclination(deg)": 53.0,
        "Latitude(deg)": -47.90864368358467,
        "Longitude(deg)": -135.17365007372112,
        "Mean Anomaly(deg)": 247.89583610670147,
        "RAAN(deg)": 89.98443689767582,
        "Satellite Name": "Starlink Shell 1 410",
        "Satellite Number": 410,
        "Semi-Major Axis(m)": 6931778.249405717,
        "Time(s)": 300
    },
    {
        "Altitude(m)": 569886.3880665384,
        "Argument of Periapsis(deg)": 0.010805932864848343,
        "Eccentricity": 0.0,
        "Inclination(deg)": 53.0,
        "Latitude(deg)": -48.184507546288124,
        "Longitude(deg)": -134.3781792027389,
        "Mean Anomaly(deg)": 248.52266731025816,
        "RAAN(deg)": 89.98391812759834,
        "Satellite Name": "Starlink Shell 1 410",
        "Satellite Number": 410,
        "Semi-Major Axis(m)": 6931778.249405717,
        "Time(s)": 310
    },
    {
        "Altitude(m)": 569995.0582097578,
        "Argument of Periapsis(deg)": 0.01115451134435958,
        "Eccentricity": 0.0,
        "Inclination(deg)": 53.0,
        "Latitude(deg)": -48.4542010328582,
        "Longitude(deg)": -133.57380105952754,
        "Mean Anomaly(deg)": 249.14949851381493,
        "RAAN(deg)": 89.98339935752087,
        "Satellite Name": "Starlink Shell 1 410",
        "Satellite Number": 410,
        "Semi-Major Axis(m)": 6931778.249405717,
        "Time(s)": 320
    },
    {
        "Altitude(m)": 570100.9840161197,
        "Argument of Periapsis(deg)": 0.011503089823870818,
        "Eccentricity": 0.0,
        "Inclination(deg)": 53.0,
        "Latitude(deg)": -48.71760125121282,
        "Longitude(deg)": -132.76054252451914,
        "Mean Anomaly(deg)": 249.7763297173716,
        "RAAN(deg)": 89.9828805874434,
        "Satellite Name": "Starlink Shell 1 410",
        "Satellite Number": 410,
        "Semi-Major Axis(m)": 6931778.249405717,
        "Time(s)": 330
    },
    {
        "Altitude(m)": 570204.1234511948,
        "Argument of Periapsis(deg)": 0.011851668303382053,
        "Eccentricity": 0.0,
        "Inclination(deg)": 53.0,
        "Latitude(deg)": -48.97458509977917,
        "Longitude(deg)": -131.9384431061209,
        "Mean Anomaly(deg)": 250.40316092092837,
        "RAAN(deg)": 89.98236181736593,
        "Satellite Name": "Starlink Shell 1 410",
        "Satellite Number": 410,
        "Semi-Major Axis(m)": 6931778.249405717,
        "Time(s)": 340
    },
    {
        "Altitude(m)": 570304.4355684558,
        "Argument of Periapsis(deg)": 0.012200246782893292,
        "Eccentricity": 0.0,
        "Inclination(deg)": 53.0,
        "Latitude(deg)": -49.22502944993835,
        "Longitude(deg)": -131.10755495647328,
        "Mean Anomaly(deg)": 251.02999212448506,
        "RAAN(deg)": 89.98184304728845,
        "Satellite Name": "Starlink Shell 1 410",
        "Satellite Number": 410,
        "Semi-Major Axis(m)": 6931778.249405717,
        "Time(s)": 350
    },
    {
        "Altitude(m)": 570401.880527131,
        "Argument of Periapsis(deg)": 0.012548825262404526,
        "Eccentricity": 0.0,
        "Inclination(deg)": 53.0,
        "Latitude(deg)": -49.46881133937656,
        "Longitude(deg)": -130.26794287023313,
        "Mean Anomaly(deg)": 251.65682332804175,
        "RAAN(deg)": 89.98132427721097,
        "Satellite Name": "Starlink Shell 1 410",
        "Satellite Number": 410,
        "Semi-Major Axis(m)": 6931778.249405717,
        "Time(s)": 360
    },
    {
        "Altitude(m)": 570496.4196095808,
        "Argument of Periapsis(deg)": 0.012897403741915765,
        "Eccentricity": 0.0,
        "Inclination(deg)": 53.0,
        "Latitude(deg)": -49.70580817616682,
        "Longitude(deg)": -129.4196857748431,
        "Mean Anomaly(deg)": 252.28365453159847,
        "RAAN(deg)": 89.98080550713351,
        "Satellite Name": "Starlink Shell 1 410",
        "Satellite Number": 410,
        "Semi-Major Axis(m)": 6931778.249405717,
        "Time(s)": 370
    }
]